NORAD_CAT_ID,OBJECT_NAME,OBJECT_TYPE,EPOCH,MEAN_MOTION,ECCENTRICITY,INCLINATION,RA_OF_ASC_NODE,ARG_OF_PERICENTER,MEAN_ANOMALY,BSTAR,MEAN_MOTION_DOT,MEAN_MOTION_DDOT,TLE_LINE0,TLE_LINE1,TLE_LINE2,SEMIMAJOR_AXIS,PERIOD,APOGEE,PERIGEE,DECAYED
51982.0,STARLINK-3650,PAYLOAD,2023-07-27 21:14:38,15.08839695,5.81e-05,53.2182,9.8919,110.8269,249.2785,4.6206e-05,4.48e-06,0.0,0 STARLINK-3650,1 51982U 22025AC  23208.88517252  .00000448  00000-0  46206-4 0  9997,2 51982  53.2182   9.8919 0000581 110.8269 249.2785 15.08839695 76762,6917.881,95.438,540.148,539.344,0.0
51982.0,STARLINK-3650,PAYLOAD,2023-07-28 03:36:11,15.08836922,5.39e-05,53.2178,8.7009,80.3102,279.7951,1.9325e-05,2e-07,0.0,0 STARLINK-3650,1 51982U 22025AC  23209.15013588  .00000020  00000-0  19325-4 0  9999,2 51982  53.2178   8.7009 0000539  80.3102 279.7951 15.08836922 76803,6917.89,95.438,540.128,539.382,0.0
51982.0,STARLINK-3650,PAYLOAD,2023-07-28 13:08:31,15.08833357,8.24e-05,53.2173,6.9178,90.1364,269.9723,-8.597e-06,-4.24e-06,0.0,0 STARLINK-3650,1 51982U 22025AC  23209.54758167 -.00000424  00000-0 -85970-5 0  9991,2 51982  53.2173   6.9178 0000824  90.1364 269.9723 15.08833357 77966,6917.901,95.438,540.336,539.196,0.0
51982.0,STARLINK-3650,PAYLOAD,2023-07-28 21:05:26,15.08844279,6.86e-05,53.2175,5.4311,91.0326,269.0745,4.3722e-05,4.08e-06,0.0,0 STARLINK-3650,1 51982U 22025AC  23209.87877351  .00000408  00000-0  43722-4 0  9992,2 51982  53.2175   5.4311 0000686  91.0326 269.0745 15.08844279 78012,6917.867,95.437,540.207,539.258,0.0
51982.0,STARLINK-3650,PAYLOAD,2023-07-29 09:48:31,15.0883544,0.0001567,53.2171,3.0492,77.0587,283.058,0.00014549,2.028e-05,0.0,0 STARLINK-3650,1 51982U 22025AC  23210.40870043  .00002028  00000-0  14549-3 0  9998,2 51982  53.2171   3.0492 0001567  77.0587 283.0580 15.08835440 78095,6917.894,95.438,540.843,538.675,0.0
51982.0,STARLINK-3650,PAYLOAD,2023-07-29 17:45:26,15.08847095,5.89e-05,53.2178,1.5652,82.7052,277.4007,0.00013028,1.787e-05,0.0,0 STARLINK-3650,1 51982U 22025AC  23210.73989131  .00001787  00000-0  13028-3 0  9995,2 51982  53.2178   1.5652 0000589  82.7052 277.4007 15.08847095 78142,6917.859,95.437,540.131,539.316,0.0
51982.0,STARLINK-3650,PAYLOAD,2023-07-30 04:53:09,15.08839417,6.26e-05,53.2176,359.4839,89.1831,270.9233,8.9086e-05,1.13e-05,0.0,0 STARLINK-3650,1 51982U 22025AC  23211.20357681  .00001130  00000-0  89086-4 0  9997,2 51982  53.2176 359.4839 0000626  89.1831 270.9233 15.08839417 78216,6917.882,95.438,540.18,539.314,0.0
51982.0,STARLINK-3650,PAYLOAD,2023-07-30 19:11:36,15.08848254,0.0001578,53.2178,356.8037,175.3615,184.7392,0.00012354,1.679e-05,0.0,0 STARLINK-3650,1 51982U 22025AC  23211.79972635  .00001679  00000-0  12354-3 0  9994,2 51982  53.2178 356.8037 0001578 175.3615 184.7392 15.08848254 78301,6917.855,95.437,540.812,538.629,0.0
51982.0,STARLINK-3650,PAYLOAD,2023-07-31 09:30:05,15.0883879,7.12e-05,53.2178,354.1316,84.3158,275.7916,6.8057e-05,7.96e-06,0.0,0 STARLINK-3650,1 51982U 22025AC  23212.39589827  .00000796  00000-0  68057-4 0  9999,2 51982  53.2178 354.1316 0000712  84.3158 275.7916 15.08838790 78398,6917.884,95.438,540.242,539.257,0.0
51982.0,STARLINK-3650,PAYLOAD,2023-07-31 15:51:37,15.08848799,9.4e-05,53.2187,352.9418,68.5918,291.5175,3.0199e-05,1.93e-06,0.0,0 STARLINK-3650,1 51982U 22025AC  23212.66085407  .00000193  00000-0  30199-4 0  9991,2 51982  53.2187 352.9418 0000940  68.5918 291.5175 15.08848799 78436,6917.853,95.437,540.369,539.068,0.0
51982.0,STARLINK-3650,PAYLOAD,2023-08-01 18:53:09,15.08863145,5.33e-05,53.2184,347.8849,82.7671,277.3381,0.00017464,2.495e-05,0.0,0 STARLINK-3650,1 51982U 22025AC  23213.78691979  .00002495  00000-0  17464-3 0  9998,2 51982  53.2184 347.8849 0000533  82.7671 277.3381 15.08863145 78608,6917.81,95.436,540.043,539.306,0.0
51982.0,STARLINK-3650,PAYLOAD,2023-08-02 04:25:29,15.08844136,0.0001344,53.2162,346.0979,140.1418,219.9673,0.00012392,1.685e-05,0.0,0 STARLINK-3650,1 51982U 22025AC  23214.18437337  .00001685  00000-0  12392-3 0  9994,2 51982  53.2162 346.0979 0001344 140.1418 219.9673 15.08844136 78669,6917.868,95.437,540.663,538.803,0.0
51982.0,STARLINK-3650,PAYLOAD,2023-08-03 09:02:26,15.08851321,5.51e-05,53.2177,340.7511,54.2982,305.8061,-4.8749e-05,-1.064e-05,0.0,0 STARLINK-3650,1 51982U 22025AC  23215.37669609 -.00001064  00000-0 -48749-4 0  9994,2 51982  53.2177 340.7511 0000551  54.2982 305.8061 15.08851321 78848,6917.846,95.437,540.092,539.33,0.0
51982.0,STARLINK-3650,PAYLOAD,2023-08-03 15:23:58,15.0885951,5.85e-05,53.2178,339.5619,48.5252,311.579,1.4246e-05,-6.1e-07,0.0,0 STARLINK-3650,1 51982U 22025AC  23215.64164601 -.00000061  00000-0  14246-4 0  9996,2 51982  53.2178 339.5619 0000585  48.5252 311.5790 15.08859510 78882,6917.821,95.436,540.09,539.281,0.0
51982.0,STARLINK-3650,PAYLOAD,2023-08-04 13:39:23,15.08829531,6.01e-05,53.2171,335.3981,73.5896,286.5162,-1.8637e-06,-3.17e-06,0.0,0 STARLINK-3650,1 51982U 22025AC  23216.56902370 -.00000317  00000-0 -18637-5 0  9995,2 51982  53.2171 335.3981 0000601  73.5896 286.5162 15.08829531 79023,6917.912,95.438,540.193,539.362,0.0
51982.0,STARLINK-3650,PAYLOAD,2023-08-05 07:08:37,15.08841037,6.67e-05,53.2174,332.1283,55.5235,304.582,0.0001207,1.634e-05,0.0,0 STARLINK-3650,1 51982U 22025AC  23217.29766104  .00001634  00000-0  12070-3 0  9993,2 51982  53.2174 332.1283 0000667  55.5235 304.5820 15.08841037 79134,6917.877,95.437,540.204,539.281,0.0
51982.0,STARLINK-3650,PAYLOAD,2023-08-05 15:05:32,15.08865714,7.87e-05,53.2173,330.6414,55.1357,304.9709,0.00046676,7.154e-05,0.0,0 STARLINK-3650,1 51982U 22025AC  23217.62884730  .00007154  00000-0  46676-3 0  9998,2 51982  53.2173 330.6414 0000787  55.1357 304.9709 15.08865714 79189,6917.802,95.436,540.211,539.122,0.0
51982.0,STARLINK-3650,PAYLOAD,2023-08-06 02:13:15,15.08841817,9.42e-05,53.2161,328.5627,86.2328,273.8772,0.00022641,3.318e-05,0.0,0 STARLINK-3650,1 51982U 22025AC  23218.09253956  .00003318  00000-0  22641-3 0  9994,2 51982  53.2161 328.5627 0000942  86.2328 273.8772 15.08841817 79254,6917.875,95.437,540.391,539.088,0.0
51982.0,STARLINK-3650,PAYLOAD,2023-08-06 14:56:21,15.08822767,6.17e-05,53.2167,326.1809,95.2714,264.8349,-0.00019364,-3.366e-05,0.0,0 STARLINK-3650,1 51982U 22025AC  23218.62247010 -.00003366  00000-0 -19364-3 0  9990,2 51982  53.2167 326.1809 0000617  95.2714 264.8349 15.08822767 79336,6917.933,95.439,540.225,539.371,0.0
51982.0,STARLINK-3650,PAYLOAD,2023-08-07 13:11:44,15.08850701,6.08e-05,53.2167,322.0174,98.8537,261.2524,0.00034226,5.165e-05,0.0,0 STARLINK-3650,1 51982U 22025AC  23219.54982511  .00005165  00000-0  34226-3 0  9995,2 51982  53.2167 322.0174 0000608  98.8537 261.2524 15.08850701 79478,6917.848,95.437,540.133,539.292,0.0
51982.0,STARLINK-3650,PAYLOAD,2023-08-08 09:51:46,15.08847484,7.86e-05,53.2158,318.151,117.78,242.3272,0.00040666,6.191e-05,0.0,0 STARLINK-3650,1 51982U 22025AC  23220.41094910  .00006191  00000-0  40666-3 0  9995,2 51982  53.2158 318.1510 0000786 117.7800 242.3272 15.08847484 79608,6917.858,95.437,540.266,539.179,0.0
51982.0,STARLINK-3650,PAYLOAD,2023-08-09 09:42:33,15.08839637,5.65e-05,53.2162,313.6902,94.1301,265.9755,7.4287e-05,8.95e-06,0.0,0 STARLINK-3650,1 51982U 22025AC  23221.40455144  .00000895  00000-0  74287-4 0  9997,2 51982  53.2162 313.6902 0000565  94.1301 265.9755 15.08839637 79751,6917.881,95.438,540.137,539.356,0.0
51982.0,STARLINK-3650,PAYLOAD,2023-08-10 15:54:52,15.08861678,7.32e-05,53.2166,308.0411,54.4414,305.6646,0.00078633,0.00012256,0.0,0 STARLINK-3650,1 51982U 22025AC  23222.66310824  .00012256  00000-0  78633-3 0  9993,2 51982  53.2166 308.0411 0000732  54.4414 305.6646 15.08861678 79940,6917.814,95.436,540.186,539.173,0.0
51982.0,STARLINK-3650,PAYLOAD,2023-08-10 22:16:25,15.08845241,7.15e-05,53.2174,306.8512,45.48,314.6251,0.00019391,2.8e-05,0.0,0 STARLINK-3650,1 51982U 22025AC  23222.92807038  .00002800  00000-0  19391-3 0  9990,2 51982  53.2174 306.8512 0000715  45.4800 314.6251 15.08845241 79981,6917.864,95.437,540.224,539.235,0.0
51982.0,STARLINK-3650,PAYLOAD,2023-08-12 10:50:17,15.08843265,6.76e-05,53.2163,300.0138,63.5189,296.5873,0.0002028,2.942e-05,0.0,0 STARLINK-3650,1 51982U 22025AC  23224.45158960  .00002942  00000-0  20280-3 0  9999,2 51982  53.2163 300.0138 0000676  63.5189 296.5873 15.08843265 80216,6917.87,95.437,540.203,539.268,0.0
51982.0,STARLINK-3650,PAYLOAD,2023-08-13 04:19:31,15.08839247,6.63e-05,53.2167,296.7434,74.517,285.5896,0.00011584,1.556e-05,0.0,0 STARLINK-3650,1 51982U 22025AC  23225.18023100  .00001556  00000-0  11584-3 0  9994,2 51982  53.2167 296.7434 0000663  74.5170 285.5896 15.08839247 80328,6917.883,95.438,540.206,539.289,0.0
51982.0,STARLINK-3650,PAYLOAD,2023-08-14 10:31:51,15.08843244,8.51e-05,53.2161,291.0928,68.7088,291.3994,9.7273e-05,1.261e-05,0.0,0 STARLINK-3650,1 51982U 22025AC  23226.43879260  .00001261  00000-0  97273-4 0  9992,2 51982  53.2161 291.0928 0000851  68.7088 291.3994 15.08843244 80517,6917.87,95.437,540.324,539.147,0.0
51982.0,STARLINK-3650,PAYLOAD,2023-08-15 13:33:24,15.08849657,9.23e-05,53.2158,286.0372,71.207,288.9022,0.00023518,3.458e-05,0.0,0 STARLINK-3650,1 51982U 22025AC  23227.56486975  .00003458  00000-0  23518-3 0  9994,2 51982  53.2158 286.0372 0000923  71.2070 288.9022 15.08849657 80686,6917.851,95.437,540.354,539.077,0.0
51982.0,STARLINK-3650,PAYLOAD,2023-08-15 23:05:43,15.08841896,8.82e-05,53.2154,284.2509,82.7308,277.3784,0.00010477,1.38e-05,0.0,0 STARLINK-3650,1 51982U 22025AC  23227.96231264  .00001380  00000-0  10477-3 0  9999,2 51982  53.2154 284.2509 0000882  82.7308 277.3784 15.08841896 80740,6917.875,95.437,540.35,539.129,0.0
51982.0,STARLINK-3650,PAYLOAD,2023-08-17 10:04:12,15.08846515,9.16e-05,53.2164,277.7112,75.0724,285.037,2.004e-05,3.1e-07,0.0,0 STARLINK-3650,1 51982U 22025AC  23229.41959032  .00000031  00000-0  20040-4 0  9991,2 51982  53.2164 277.7112 0000916  75.0724 285.0370 15.08846515 80967,6917.86,95.437,540.359,539.092,0.0
